NORAD_CAT_ID,OBJECT_NAME,OBJECT_TYPE,EPOCH,MEAN_MOTION,ECCENTRICITY,INCLINATION,RA_OF_ASC_NODE,ARG_OF_PERICENTER,MEAN_ANOMALY,BSTAR,MEAN_MOTION_DOT,MEAN_MOTION_DDOT,TLE_LINE0,TLE_LINE1,TLE_LINE2,SEMIMAJOR_AXIS,PERIOD,APOGEE,PERIGEE,DECAYED
52003.0,STARLINK-3654,PAYLOAD,2022-11-19 22:03:26,15.08837346,0.0001905,53.2196,32.0375,46.8924,313.2227,-5.0917e-06,-3.69e-06,0.0,0 STARLINK-3654,1 52003U 22025AZ  22323.91905610 -.00000369  00000-0 -50917-5 0  9991,2 52003  53.2196  32.0375 0001905  46.8924 313.2227 15.08837346 40409,6917.889,95.438,541.071,538.436,0.0
52003.0,STARLINK-3654,PAYLOAD,2022-11-20 12:21:54,15.08847362,0.0001927,53.2193,29.3614,48.485,311.6307,0.00031484,4.727e-05,0.0,0 STARLINK-3654,1 52003U 22025AZ  22324.51521476  .00004727  00000-0  31484-3 0  9998,2 52003  53.2193  29.3614 0001927  48.4850 311.6307 15.08847362 38981,6917.858,95.437,541.056,538.39,0.0
52003.0,STARLINK-3654,PAYLOAD,2022-11-20 15:32:40,15.08847398,0.0001933,53.219,28.7668,47.5104,312.6052,0.00063409,9.82e-05,0.0,0 STARLINK-3654,1 52003U 22025AZ  22324.64769642  .00009820  00000-0  63409-3 0  9992,2 52003  53.2190  28.7668 0001933  47.5104 312.6052 15.08847398 39000,6917.858,95.437,541.06,538.386,0.0
52003.0,STARLINK-3654,PAYLOAD,2022-11-21 04:15:46,15.08849044,0.000203,53.2192,26.3883,48.5856,311.531,0.00048065,7.372e-05,0.0,0 STARLINK-3654,1 52003U 22025AZ  22325.17761614  .00007372  00000-0  48065-3 0  9993,2 52003  53.2192  26.3883 0002030  48.5856 311.5310 15.08849044 40590,6917.853,95.437,541.122,538.313,0.0
52003.0,STARLINK-3654,PAYLOAD,2022-11-21 12:12:41,15.08849311,0.0001945,53.2193,24.9017,47.1544,312.9611,0.00038687,5.876e-05,0.0,0 STARLINK-3654,1 52003U 22025AZ  22325.50881490  .00005876  00000-0  38687-3 0  9991,2 52003  53.2193  24.9017 0001945  47.1544 312.9611 15.08849311 39131,6917.852,95.437,541.062,538.371,0.0
52003.0,STARLINK-3654,PAYLOAD,2022-11-21 15:23:28,15.0884226,0.000206,53.2192,24.3069,45.5298,314.5862,0.00013479,1.858e-05,0.0,0 STARLINK-3654,1 52003U 22025AZ  22325.64129661  .00001858  00000-0  13479-3 0  9999,2 52003  53.2192  24.3069 0002060  45.5298 314.5862 15.08842260 40660,6917.873000000001,95.437,541.164,538.313,0.0
52003.0,STARLINK-3654,PAYLOAD,2022-11-22 10:28:05,15.08853467,0.000213,53.2193,20.7382,49.4094,310.7083,0.0004246,6.478e-05,0.0,0 STARLINK-3654,1 52003U 22025AZ  22326.43617200  .00006478  00000-0  42460-3 0  9993,2 52003  53.2193  20.7382 0002130  49.4094 310.7083 15.08853467 39273,6917.839,95.437,541.178,538.231,0.0
52003.0,STARLINK-3654,PAYLOAD,2022-11-22 15:14:14,15.0884049,0.0002042,53.2192,19.8472,41.0448,319.0697,7.462300000000001e-05,9e-06,0.0,0 STARLINK-3654,1 52003U 22025AZ  22326.63489453  .00000900  00000-0  74623-4 0  9993,2 52003  53.2192  19.8472 0002042  41.0448 319.0697 15.08840490 39303,6917.879,95.438,541.1569999999998,538.331,0.0
52003.0,STARLINK-3654,PAYLOAD,2022-11-23 10:18:52,15.08835439,0.000198,53.2193,16.2789,42.6538,317.4608,-3.1802e-05,-7.94e-06,0.0,0 STARLINK-3654,1 52003U 22025AZ  22327.42977916 -.00000794  00000-0 -31802-4 0  9992,2 52003  53.2193  16.2789 0001980  42.6538 317.4608 15.08835439 40935,6917.894,95.438,541.129,538.39,0.0
52003.0,STARLINK-3654,PAYLOAD,2022-11-23 15:05:02,15.08834313,0.0001986,53.2191,15.3872,41.9667,318.1477,-3.728e-05,-8.81e-06,0.0,0 STARLINK-3654,1 52003U 22025AZ  22327.62850032 -.00000881  00000-0 -37280-4 0  9996,2 52003  53.2191  15.3872 0001986  41.9667 318.1477 15.08834313 39454,6917.898,95.438,541.137,538.389,0.0
52003.0,STARLINK-3654,PAYLOAD,2022-11-24 10:09:39,15.08841781,0.0002052,53.2201,11.8184,43.6426,316.4729,0.00014522,2.024e-05,0.0,0 STARLINK-3654,1 52003U 22025AZ  22328.42337745  .00002024  00000-0  14522-3 0  9998,2 52003  53.2201  11.8184 0002052  43.6426 316.4729 15.08841781 39571,6917.875,95.437,541.159,538.32,0.0
52003.0,STARLINK-3654,PAYLOAD,2022-11-24 11:45:02,15.08842892,0.0002056,53.2201,11.521,43.9644,316.1511,0.00015362,2.158e-05,0.0,0 STARLINK-3654,1 52003U 22025AZ  22328.48961672  .00002158  00000-0  15362-3 0  9997,2 52003  53.2201  11.5210 0002056  43.9644 316.1511 15.08842892 41097,6917.871999999999,95.437,541.159,538.314,0.0
52003.0,STARLINK-3654,PAYLOAD,2022-11-24 19:41:58,15.08843851,0.0002083,53.2202,10.0342,44.0888,316.027,0.00014915,2.087e-05,0.0,0 STARLINK-3654,1 52003U 22025AZ  22328.82081587  .00002087  00000-0  14915-3 0  9997,2 52003  53.2202  10.0342 0002083  44.0888 316.0270 15.08843851 39634,6917.869000000002,95.437,541.175,538.293,0.0
52003.0,STARLINK-3654,PAYLOAD,2022-11-25 03:38:54,15.08835233,0.0002054,53.2202,8.5477,45.8682,314.2479,0.0001002,1.307e-05,0.0,0 STARLINK-3654,1 52003U 22025AZ  22329.15202342  .00001307  00000-0  10020-3 0  9995,2 52003  53.2202   8.5477 0002054  45.8682 314.2479 15.08835233 41194,6917.895,95.438,541.181,538.339,0.0
52003.0,STARLINK-3654,PAYLOAD,2022-11-25 11:35:50,15.088429199999998,0.0002088,53.2196,7.0613,47.3888,312.728,0.00019374,2.797e-05,0.0,0 STARLINK-3654,1 52003U 22025AZ  22329.48321864  .00002797  00000-0  19374-3 0  9997,2 52003  53.2196   7.0613 0002088  47.3888 312.7280 15.08842920 39735,6917.871,95.437,541.181,538.2919999999998,0.0
52003.0,STARLINK-3654,PAYLOAD,2022-11-25 14:46:36,15.0884646,0.0002111,53.2194,6.4663,45.3628,314.7536,0.00023174,3.403e-05,0.0,0 STARLINK-3654,1 52003U 22025AZ  22329.61569702  .00003403  00000-0  23174-3 0  9995,2 52003  53.2194   6.4663 0002111  45.3628 314.7536 15.08846460 41268,6917.861,95.437,541.186,538.265,0.0
52003.0,STARLINK-3654,PAYLOAD,2022-11-25 19:32:45,15.08852232,0.0002151,53.2194,5.5743,45.0766,315.04,0.00029391,4.394e-05,0.0,0 STARLINK-3654,1 52003U 22025AZ  22329.81441395  .00004394  00000-0  29391-3 0  9991,2 52003  53.2194   5.5743 0002151  45.0766 315.0400 15.08852232 39783,6917.843000000003,95.437,541.196,538.22,0.0
52003.0,STARLINK-3654,PAYLOAD,2022-11-26 11:26:36,15.08847495,0.0002163,53.2194,2.6008,46.3133,313.8038,8.287e-05,1.031e-05,0.0,0 STARLINK-3654,1 52003U 22025AZ  22330.47681292  .00001031  00000-0  82870-4 0  9994,2 52003  53.2194   2.6008 0002163  46.3133 313.8038 15.08847495 39889,6917.857,95.437,541.219,538.226,0.0
52003.0,STARLINK-3654,PAYLOAD,2022-11-26 19:23:31,15.08855204,0.0002178,53.2193,1.1139,45.9002,314.2169,0.00015303,2.149e-05,0.0,0 STARLINK-3654,1 52003U 22025AZ  22330.80800686  .00002149  00000-0  15303-3 0  9998,2 52003  53.2193   1.1139 0002178  45.9002 314.2169 15.08855204 39936,6917.834,95.437,541.206,538.192,0.0
52003.0,STARLINK-3654,PAYLOAD,2022-11-27 08:06:37,15.08832729,0.000207,53.2195,358.7349,44.4396,315.6762,-7.5072e-05,-1.483e-05,0.0,0 STARLINK-3654,1 52003U 22025AZ  22331.33793719 -.00001483  00000-0 -75072-4 0  9997,2 52003  53.2195 358.7349 0002070  44.4396 315.6762 15.08832729 41522,6917.903,95.438,541.2,538.336,0.0
52003.0,STARLINK-3654,PAYLOAD,2022-11-27 11:17:24,15.08831638,0.0002032,53.2203,358.1405,46.1978,313.9182,-5.163e-05,-1.11e-05,0.0,0 STARLINK-3654,1 52003U 22025AZ  22331.47042379 -.00001110  00000-0 -51630-4 0  9992,2 52003  53.2203 358.1405 0002032  46.1978 313.9182 15.08831638 40032,6917.906,95.438,541.177,538.365,0.0
52003.0,STARLINK-3654,PAYLOAD,2022-11-27 19:14:19,15.08839506,0.0002046,53.2202,356.6534,43.2445,316.8707,-1.6412e-05,-5.49e-06,0.0,0 STARLINK-3654,1 52003U 22025AZ  22331.80161854 -.00000549  00000-0 -16412-4 0  9993,2 52003  53.2202 356.6534 0002046  43.2445 316.8707 15.08839506 40081,6917.882,95.438,541.1619999999998,538.332,0.0
52003.0,STARLINK-3654,PAYLOAD,2022-11-28 09:32:48,15.08833882,0.0002045,53.22,353.9771,41.9976,318.1173,-8.2035e-05,-1.593e-05,0.0,0 STARLINK-3654,1 52003U 22025AZ  22332.39778345 -.00001593  00000-0 -82035-4 0  9991,2 52003  53.2200 353.9771 0002045  41.9976 318.1173 15.08833882 41685,6917.899,95.438,541.179,538.349,0.0
52003.0,STARLINK-3654,PAYLOAD,2022-11-28 12:43:34,15.08835085,0.0002109,53.22,353.3829,42.4528,317.6627,-5.906600000000003e-05,-1.228e-05,0.0,0 STARLINK-3654,1 52003U 22025AZ  22332.53026188 -.00001228  00000-0 -59066-4 0  9991,2 52003  53.2200 353.3829 0002109  42.4528 317.6627 15.08835085 40193,6917.895,95.438,541.219,538.3009999999998,0.0
52003.0,STARLINK-3654,PAYLOAD,2022-11-29 01:26:39,15.08834253,0.0002091,53.2199,351.0037,40.7856,319.3292,7.0258e-05,8.3e-06,0.0,0 STARLINK-3654,1 52003U 22025AZ  22333.06017923  .00000830  00000-0  70258-4 0  9999,2 52003  53.2199 351.0037 0002091  40.7856 319.3292 15.08834253 41780,6917.898,95.438,541.2090000000002,538.316,0.0
52003.0,STARLINK-3654,PAYLOAD,2022-11-29 10:58:57,15.0884113,0.0002113,53.2198,349.2198,41.7869,318.3285,0.00018763,2.699e-05,0.0,0 STARLINK-3654,1 52003U 22025AZ  22333.45761415  .00002699  00000-0  18763-3 0  9991,2 52003  53.2198 349.2198 0002113  41.7869 318.3285 15.08841130 40339,6917.877,95.437,541.2040000000002,538.28,0.0
52003.0,STARLINK-3654,PAYLOAD,2022-11-30 01:17:27,15.08829834,0.0002187,53.2198,346.5438,42.5072,317.6089,2.3465e-05,8.5e-07,0.0,0 STARLINK-3654,1 52003U 22025AZ  22334.05378879  .00000085  00000-0  23465-4 0  9999,2 52003  53.2198 346.5438 0002187  42.5072 317.6089 15.08829834 41930,6917.911,95.438,541.289,538.264,0.0
52003.0,STARLINK-3654,PAYLOAD,2022-11-30 12:25:09,15.08832121,0.0002144,53.2192,344.461,41.8829,318.2326,-5.5739e-05,-1.175e-05,0.0,0 STARLINK-3654,1 52003U 22025AZ  22334.51747215 -.00001175  00000-0 -55739-4 0  9996,2 52003  53.2192 344.4610 0002144  41.8829 318.2326 15.08832121 40492,6917.904,95.438,541.253,538.286,0.0
52003.0,STARLINK-3654,PAYLOAD,2022-12-01 12:15:55,15.0885052,0.0002218,53.2199,340.0014,40.7826,319.3332,0.00013687,1.891e-05,0.0,0 STARLINK-3654,1 52003U 22025AZ  22335.51105899  .00001891  00000-0  13687-3 0  9991,2 52003  53.2199 340.0014 0002218  40.7826 319.3332 15.08850520 40645,6917.848000000001,95.437,541.248,538.179,0.0
